{
  "type": "FeatureCollection",
  "version": 2,
  "source": "openstreetmap:way/641677241",
  "features": [
    {
      "type": "Feature",
      "properties": {
        "name": "Parque de las Culturas y de la Madre Tierra",
        "osm_id": 641677241,
        "centroid": {
          "lng": -68.14567761,
          "lat": -16.48890769
        }
      },
      "geometry": {
        "type": "Polygon",
        "coordinates": [
          [
            [
              -68.146852,
              -16.4877644
            ],
            [
              -68.1467925,
              -16.4880381
            ],
            [
              -68.1467341,
              -16.4882035
            ],
            [
              -68.1466021,
              -16.4883824
            ],
            [
              -68.1465112,
              -16.4885197
            ],
            [
              -68.1464571,
              -16.488591
            ],
            [
              -68.1463633,
              -16.4887146
            ],
            [
              -68.1460505,
              -16.4886686
            ],
            [
              -68.1460882,
              -16.4885464
            ],
            [
              -68.1457379,
              -16.4884394
            ],
            [
              -68.1456607,
              -16.4886401
            ],
            [
              -68.1457081,
              -16.4886594
            ],
            [
              -68.1455956,
              -16.4889664
            ],
            [
              -68.1456155,
              -16.4891208
            ],
            [
              -68.1455725,
              -16.4891055
            ],
            [
              -68.1455635,
              -16.4895013
            ],
            [
              -68.1455773,
              -16.4898353
            ],
            [
              -68.1456226,
              -16.4902656
            ],
            [
              -68.1454962,
              -16.490356
            ],
            [
              -68.1454711,
              -16.4905043
            ],
            [
              -68.1454286,
              -16.4905226
            ],
            [
              -68.1454653,
              -16.4905893
            ],
            [
              -68.1454031,
              -16.4909859
            ],
            [
              -68.145359,
              -16.4914164
            ],
            [
              -68.145236,
              -16.4919539
            ],
            [
              -68.1451622,
              -16.491628
            ],
            [
              -68.1452133,
              -16.4912692
            ],
            [
              -68.1451059,
              -16.4907387
            ],
            [
              -68.1449792,
              -16.4908047
            ],
            [
              -68.1448818,
              -16.4906328
            ],
            [
              -68.1446661,
              -16.4905639
            ],
            [
              -68.1446877,
              -16.4905018
            ],
            [
              -68.1446692,
              -16.4904962
            ],
            [
              -68.1446378,
              -16.4904867
            ],
            [
              -68.1446739,
              -16.4903752
            ],
            [
              -68.1447472,
              -16.4903029
            ],
            [
              -68.1452021,
              -16.4888772
            ],
            [
              -68.1450162,
              -16.4888272
            ],
            [
              -68.1450984,
              -16.4887574
            ],
            [
              -68.1451755,
              -16.4887404
            ],
            [
              -68.1452252,
              -16.4885963
            ],
            [
              -68.1451223,
              -16.4885384
            ],
            [
              -68.145108,
              -16.4884233
            ],
            [
              -68.1450983,
              -16.4883774
            ],
            [
              -68.1451563,
              -16.4883125
            ],
            [
              -68.1452451,
              -16.4882723
            ],
            [
              -68.1454037,
              -16.4882649
            ],
            [
              -68.1457673,
              -16.4871623
            ],
            [
              -68.1459376,
              -16.4866356
            ],
            [
              -68.1460136,
              -16.4867539
            ],
            [
              -68.1458699,
              -16.4871994
            ],
            [
              -68.1465321,
              -16.4873731
            ],
            [
              -68.1466136,
              -16.4874108
            ],
            [
              -68.1466777,
              -16.4874486
            ],
            [
              -68.1467999,
              -16.4874826
            ],
            [
              -68.146852,
              -16.4877644
            ]
          ]
        ]
      }
    }
  ]
}